NORAD_CAT_ID,OBJECT_NAME,OBJECT_TYPE,EPOCH,MEAN_MOTION,ECCENTRICITY,INCLINATION,RA_OF_ASC_NODE,ARG_OF_PERICENTER,MEAN_ANOMALY,BSTAR,MEAN_MOTION_DOT,MEAN_MOTION_DDOT,TLE_LINE0,TLE_LINE1,TLE_LINE2,SEMIMAJOR_AXIS,PERIOD,APOGEE,PERIGEE,DECAYED
55959.0,STARLINK-5929,PAYLOAD,2023-10-22 06:00:00,14.98358518,0.0003106,70.001,296.6074,271.2092,311.0391,-0.0036033,-0.00042857,0.0,0 STARLINK-5929,1 55959U 23037AX  23295.25001157 -.00042857  00000-0 -36033-2 0  9995,2 55959  70.0010 296.6074 0003106 271.2092 311.0391 14.98358518 34580,6950.105,96.105,574.128,569.811,0.0
55959.0,STARLINK-5929,PAYLOAD,2023-10-22 14:00:01,14.983415,0.0003101,70.0006,295.7668,274.7195,305.0258,-0.0033926,-0.00040353,0.0,0 STARLINK-5929,1 55959U 23037AX  23295.58334491 -.00040353  00000-0 -33926-2 0  9998,2 55959  70.0006 295.7668 0003101 274.7195 305.0258 14.98341500  5891,6950.157,96.106,574.178,569.867,0.0
55959.0,STARLINK-5929,PAYLOAD,2023-10-22 22:00:00,14.98296786,0.0003111,70.0008,294.9265,269.0752,308.1507,0.0050081,0.00060127,0.0,0 STARLINK-5929,1 55959U 23037AX  23295.91667824  .00060127  00000-0  50081-2 0  9994,2 55959  70.0008 294.9265 0003111 269.0752 308.1507 14.98296786 34689,6950.296,96.109,574.323,569.998,0.0
55959.0,STARLINK-5929,PAYLOAD,2023-10-23 00:00:02,14.98323349,0.0003104,70.001,294.7163,268.6299,38.0159,0.0018372,0.00021893,0.0,0 STARLINK-5929,1 55959U 23037AX  23296.00002315  .00021893  00000-0  18372-2 0  9997,2 55959  70.0010 294.7163 0003104 268.6299  38.0159 14.98323349  5732,6950.213,96.107,574.236,569.921,0.0
55959.0,STARLINK-5929,PAYLOAD,2023-10-23 09:51:06,14.98323516,0.0002693,69.9991,293.6811,268.1561,91.929,-1.0377e-06,-1.05e-06,0.0,0 STARLINK-5929,1 55959U 23037AX  23296.41049670 -.00000105  00000-0 -10377-5 0  9992,2 55959  69.9991 293.6811 0002693 268.1561  91.9290 14.98323516 34758,6950.213,96.107,573.95,570.206,0.0
55959.0,STARLINK-5929,PAYLOAD,2023-10-23 17:51:46,14.98329448,0.0002912,69.9989,292.8397,276.969,83.1138,-3.3992e-06,-1.34e-06,0.0,0 STARLINK-5929,1 55959U 23037AX  23296.74429361 -.00000134  00000-0 -33992-5 0  9997,2 55959  69.9989 292.8397 0002912 276.9690  83.1138 14.98329448 34461,6950.195,96.107,574.083,570.036,0.0
55959.0,STARLINK-5929,PAYLOAD,2023-10-24 05:04:43,14.98332486,0.0002961,69.9988,291.6611,271.7967,88.2853,-4.0395e-06,-1.41e-06,0.0,0 STARLINK-5929,1 55959U 23037AX  23297.21161068 -.00000141  00000-0 -40395-5 0  9990,2 55959  69.9988 291.6611 0002961 271.7967  88.2853 14.98332486 34871,6950.185,96.107,574.108,569.992,0.0
55959.0,STARLINK-5929,PAYLOAD,2023-10-24 09:53:07,14.983298,0.0002928,69.9984,291.1563,269.4119,90.6704,-2.6423e-05,-4.08e-06,0.0,0 STARLINK-5929,1 55959U 23037AX  23297.41189265 -.00000408  00000-0 -26423-4 0  9992,2 55959  69.9984 291.1563 0002928 269.4119  90.6704 14.98329800 34568,6950.194,96.107,574.094,570.023,0.0
55959.0,STARLINK-5929,PAYLOAD,2023-10-25 09:55:08,14.98331871,0.0002678,69.999,288.6313,272.9575,87.1278,5.9527e-05,6.17e-06,0.0,0 STARLINK-5929,1 55959U 23037AX  23298.41328900  .00000617  00000-0  59527-4 0  9995,2 55959  69.9990 288.6313 0002678 272.9575  87.1278 14.98331871 35059,6950.187,96.107,573.913,570.191,0.0
55959.0,STARLINK-5929,PAYLOAD,2023-10-26 08:21:01,14.98330633,0.0002741,69.9992,286.2754,268.8391,91.2454,-1.3771e-05,-2.57e-06,0.0,0 STARLINK-5929,1 55959U 23037AX  23299.34793029 -.00000257  00000-0 -13771-4 0  9999,2 55959  69.9992 286.2754 0002741 268.8391  91.2454 14.98330633 34859,6950.191,96.107,573.961,570.151,0.0
55959.0,STARLINK-5929,PAYLOAD,2023-10-26 16:21:41,14.98346053,0.0002842,69.9995,285.4316,275.5321,84.5514,-0.00030944,-3.785e-05,0.0,0 STARLINK-5929,1 55959U 23037AX  23299.68172579 -.00003785  00000-0 -30944-3 0  9996,2 55959  69.9995 285.4316 0002842 275.5321  84.5514 14.98346053 34908,6950.143,96.106,573.983,570.033,0.0
55959.0,STARLINK-5929,PAYLOAD,2023-10-27 05:10:45,14.9833607,0.0002879,69.9986,284.0867,267.6913,92.3916,2.1702e-05,1.66e-06,0.0,0 STARLINK-5929,1 55959U 23037AX  23300.21580425  .00000166  00000-0  21702-4 0  9992,2 55959  69.9986 284.0867 0002879 267.6913  92.3916 14.98336070 35321,6950.174,96.107,574.04,570.038,0.0
55959.0,STARLINK-5929,PAYLOAD,2023-10-27 08:23:01,14.98344006,0.0002587,69.9988,283.75,260.4181,99.6686,-8.7926e-05,-1.142e-05,0.0,0 STARLINK-5929,1 55959U 23037AX  23300.34932128 -.00001142  00000-0 -87926-4 0  9994,2 55959  69.9988 283.7500 0002587 260.4181  99.6686 14.98344006 35004,6950.15,96.106,573.813,570.217,0.0
55959.0,STARLINK-5929,PAYLOAD,2023-10-27 22:48:14,14.98328858,0.0002668,69.9985,282.2345,272.8509,87.2345,5.1204e-06,-3.2e-07,0.0,0 STARLINK-5929,1 55959U 23037AX  23300.95016852 -.00000032  00000-0  51204-5 0  9995,2 55959  69.9985 282.2345 0002668 272.8509  87.2345 14.98328858 35094,6950.196,96.107,573.916,570.207,0.0
55959.0,STARLINK-5929,PAYLOAD,2023-10-28 00:24:22,14.98325292,0.0002759,69.999,282.0666,266.9613,93.123,-1.5224e-05,-2.75e-06,0.0,0 STARLINK-5929,1 55959U 23037AX  23301.01693064 -.00000275  00000-0 -15224-4 0  9990,2 55959  69.9990 282.0666 0002759 266.9613  93.1230 14.98325292 35442,6950.207,96.107,573.99,570.155,0.0
55959.0,STARLINK-5929,PAYLOAD,2023-10-28 08:25:03,14.98324416,0.0002676,69.999,281.2241,262.7283,97.3572,-3.4822e-05,-5.08e-06,0.0,0 STARLINK-5929,1 55959U 23037AX  23301.35073272 -.00000508  00000-0 -34822-4 0  9994,2 55959  69.9990 281.2241 0002676 262.7283  97.3572 14.98324416 35157,6950.21,96.107,573.935,570.215,0.0
55959.0,STARLINK-5929,PAYLOAD,2023-10-28 22:50:15,14.98330474,0.0002975,69.9984,279.7097,270.1645,89.9173,-9.733e-06,-2.09e-06,0.0,0 STARLINK-5929,1 55959U 23037AX  23301.95156841 -.00000209  00000-0 -97330-5 0  9996,2 55959  69.9984 279.7097 0002975 270.1645  89.9173 14.98330474 35243,6950.191,96.107,574.124,569.989,0.0
55959.0,STARLINK-5929,PAYLOAD,2023-10-29 05:14:47,14.98335799,0.0002895,69.9988,279.0362,269.5913,90.4914,1.5833e-05,9.6e-07,0.0,0 STARLINK-5929,1 55959U 23037AX  23302.21860414  .00000096  00000-0  15833-4 0  9993,2 55959  69.9988 279.0362 0002895 269.5913  90.4914 14.98335799 35623,6950.175,96.107,574.052,570.028,0.0
55959.0,STARLINK-5929,PAYLOAD,2023-10-29 08:27:03,14.9833645,0.000282,69.9989,278.6999,268.7296,91.354,6.4953e-05,6.82e-06,0.0,0 STARLINK-5929,1 55959U 23037AX  23302.35212217  .00000682  00000-0  64953-4 0  9998,2 55959  69.9989 278.6999 0002820 268.7296  91.3540 14.98336450 35303,6950.173,96.107,573.998,570.078,0.0
55959.0,STARLINK-5929,PAYLOAD,2023-10-29 22:52:16,14.98327293,0.0002717,70.0005,277.1846,272.7589,87.3259,7.2121e-05,7.68e-06,0.0,0 STARLINK-5929,1 55959U 23037AX  23302.95296716  .00000768  00000-0  72121-4 0  9991,2 55959  70.0005 277.1846 0002717 272.7589  87.3259 14.98327293 35391,6950.201,96.107,573.955,570.178,0.0
55959.0,STARLINK-5929,PAYLOAD,2023-10-30 03:40:40,14.98324601,0.0002598,70.0003,276.68,264.0276,96.0587,2.9436e-05,2.58e-06,0.0,0 STARLINK-5929,1 55959U 23037AX  23303.15324989  .00000258  00000-0  29436-4 0  9993,2 55959  70.0003 276.6800 0002598 264.0276  96.0587 14.98324601 35769,6950.21,96.107,573.88,570.269,0.0
55959.0,STARLINK-5929,PAYLOAD,2023-10-30 08:29:04,14.98327345,0.0002678,69.9999,276.1753,266.9414,93.1439,5.9255e-05,6.14e-06,0.0,0 STARLINK-5929,1 55959U 23037AX  23303.35352765  .00000614  00000-0  59255-4 0  9996,2 55959  69.9999 276.1753 0002678 266.9414  93.1439 14.98327345 35454,6950.201,96.107,573.927,570.205,0.0
55959.0,STARLINK-5929,PAYLOAD,2023-10-31 05:18:47,14.98372374,0.0002577,70.0002,273.9862,264.3131,95.7735,0.00012317,1.379e-05,0.0,0 STARLINK-5929,1 55959U 23037AX  23304.22137936  .00001379  00000-0  12317-3 0  9990,2 55959  70.0002 273.9862 0002577 264.3131  95.7735 14.98372374 35925,6950.062,96.104,573.718,570.136,0.0
55959.0,STARLINK-5929,PAYLOAD,2023-10-31 08:31:05,14.98329695,0.0002591,69.9996,273.6507,262.7202,97.3663,-2.819e-05,-4.29e-06,0.0,0 STARLINK-5929,1 55959U 23037AX  23304.35492929 -.00000429  00000-0 -28190-4 0  9994,2 55959  69.9996 273.6507 0002591 262.7202  97.3663 14.98329695 35942,6950.194,96.107,573.86,570.258,0.0
55959.0,STARLINK-5929,PAYLOAD,2023-10-31 14:55:37,14.98362243,0.0002864,70.0001,272.9762,273.5061,86.577,-0.00057084,-6.903e-05,0.0,0 STARLINK-5929,1 55959U 23037AX  23304.62195971 -.00006903  00000-0 -57084-3 0  9997,2 55959  70.0001 272.9762 0002864 273.5061  86.5770 14.98362243 35982,6950.093,96.105,573.949,569.968,0.0
55959.0,STARLINK-5929,PAYLOAD,2023-11-01 03:44:45,14.98286641,0.000209,69.9997,271.6296,255.9603,104.1324,-0.00049514,-5.989e-05,0.0,0 STARLINK-5929,1 55959U 23037AX  23305.15608627 -.00005989  00000-0 -49514-3 0  9995,2 55959  69.9997 271.6296 0002090 255.9603 104.1324 14.98286641 36067,6950.327,96.11,573.645,570.739,0.0
55959.0,STARLINK-5929,PAYLOAD,2023-11-01 06:56:58,14.98332155,0.0002625,69.9995,271.2932,263.0571,97.0289,4.1925e-05,4.07e-06,0.0,0 STARLINK-5929,1 55959U 23037AX  23305.28956460  .00000407  00000-0  41925-4 0  9997,2 55959  69.9995 271.2932 0002625 263.0571  97.0289 14.98332155 36080,6950.186,96.107,573.876,570.227,0.0
55959.0,STARLINK-5929,PAYLOAD,2023-11-01 22:58:19,14.98329691,0.0002852,69.9992,269.6102,270.3112,89.772,2.6694e-05,2.26e-06,0.0,0 STARLINK-5929,1 55959U 23037AX  23305.95716630  .00000226  00000-0  26694-4 0  9999,2 55959  69.9992 269.6102 0002852 270.3112  89.7720 14.98329691 35843,6950.194,96.107,574.041,570.077,0.0
55959.0,STARLINK-5929,PAYLOAD,2023-11-02 06:58:59,14.9833104,0.0002728,69.9997,268.7689,266.6752,93.4095,6.496e-05,6.82e-06,0.0,0 STARLINK-5929,1 55959U 23037AX  23306.29096421  .00000682  00000-0  64960-4 0  9990,2 55959  69.9997 268.7689 0002728 266.6752  93.4095 14.98331040 36230,6950.19,96.107,573.951,570.159,0.0
55959.0,STARLINK-5929,PAYLOAD,2023-11-02 21:24:12,14.98328238,0.0002899,69.9995,267.2529,268.5465,91.5362,-6.7612e-06,-1.74e-06,0.0,0 STARLINK-5929,1 55959U 23037AX  23306.89180747 -.00000174  00000-0 -67612-5 0  9997,2 55959  69.9995 267.2529 0002899 268.5465  91.5362 14.98328238 35988,6950.198,96.107,574.078,570.048,0.0
